1 23455U 94089A   99092.60188822  .00000160  00000-0  11266-3 0  8707
2 23455  99.0833  58.6706 0008546 253.4487 106.5738 14.11932124219281
1 23455U 94089A   99092.88534466  .00000170  00000-0  11835-3 0  8765
2 23455  99.0833  58.9576 0008572 252.7837 107.2399 14.11932352219328
1 23455U 94089A   99093.02707279  .00000173  00000-0  11972-3 0  8558
2 23455  99.0833  59.1012 0008573 252.4598 107.5635 14.11932439219342
1 23455U 94089A   99093.16880100  .00000186  00000-0  12682-3 0  8584
2 23455  99.0834  59.2448 0008546 251.9526 108.0725 14.11932623219365
1 23455U 94089A   99093.52312125  .00000189  00000-0  12831-3 0  8759
2 23455  99.0835  59.6038 0008522 250.6337 109.3913 14.11932807219418
1 23455U 94089A   99093.87744160  .00000196  00000-0  13227-3 0  8854
2 23455  99.0835  59.9625 0008542 249.6466 110.3790 14.11933049219465
1 23455U 94089A   99094.23176170  .00000210  00000-0  14017-3 0  8603
2 23455  99.0837  60.3216 0008522 248.6225 111.4037 14.11933357219513
1 23455U 94089A   99094.51521796  .00000209  00000-0  13957-3 0  8747
2 23455  99.0838  60.6089 0008507 247.7218 112.3049 14.11933480219554
1 23455U 94089A   99094.86953783  .00000228  00000-0  14972-3 0  8851
2 23455  99.0840  60.9681 0008564 246.8439 113.1834 14.11933845219608
1 23455U 94089A   99095.01126587  .00000226  00000-0  14883-3 0  8571
2 23455  99.0840  61.1117 0008558 246.4469 113.5802 14.11933903219623
1 23455U 94089A   99095.15299326  .00000241  00000-0  15703-3 0  8599
2 23455  99.0825  61.2560 0008494 244.9149 115.1138 14.11934375219642
1 23455U 94089A   99095.50731356  .00000234  00000-0  15325-3 0  8730
2 23455  99.0827  61.6150 0008499 243.8561 116.1732 14.11934479219695
1 23455U 94089A   99095.86163415  .00000224  00000-0  14747-3 0  8796
2 23455  99.0828  61.9734 0008489 242.5875 117.4434 14.11934524219740
1 23455U 94089A   99095.93249813  .00000224  00000-0  14767-3 0  8580
2 23455  99.0827  62.0452 0008489 242.3887 117.6422 14.11934568219757
1 23455U 94089A   99096.14509024  .00000219  00000-0  14506-3 0  8616
2 23455  99.0829  62.2606 0008497 241.7811 118.2498 14.11934617219789
1 23455U 94089A   99096.49941059  .00000210  00000-0  13996-3 0  8749
2 23455  99.0831  62.6196 0008507 240.6116 119.4204 14.11934681219833
1 23455U 94089A   99096.85373107  .00000199  00000-0  13409-3 0  8590
2 23455  99.0831  62.9783 0008504 239.3882 120.6451 14.11934719219885
1 23455U 94089A   99096.85373107  .00000199  00000-0  13409-3 0  8837
2 23455  99.0831  62.9783 0008504 239.3882 120.6451 14.11934719219885
1 23455U 94089A   99097.13718721  .00000193  00000-0  13050-3 0  8649
2 23455  99.0832  63.2655 0008511 238.7067 121.3266 14.11934775219923
1 23455U 94089A   99097.49150741  .00000185  00000-0  12623-3 0  8770
2 23455  99.0834  63.6245 0008518 237.6581 122.3758 14.11934844219979
1 23455U 94089A   99097.84582777  .00000179  00000-0  12323-3 0  8823
2 23455  99.0834  63.9832 0008523 236.5109 123.5247 14.11934941220026
1 23455U 94089A   99097.98755581  .00000177  00000-0  12185-3 0  8603
2 23455  99.0834  64.1267 0008521 236.0839 123.9519 14.11934974220048
1 23455U 94089A   99098.12928392  .00000172  00000-0  11932-3 0  8628
2 23455  99.0835  64.2704 0008524 235.7630 124.2728 14.11934979220067
1 23455U 94089A   99098.48360414  .00000161  00000-0  11313-3 0  8746
2 23455  99.0835  64.6291 0008529 234.8401 125.1959 14.11935003220114
1 23455U 94089A   99098.83792452  .00000160  00000-0  11246-3 0  8829
2 23455  99.0835  64.9878 0008529 233.8016 126.2370 14.11935132220166
1 23455U 94089A   99098.90878849  .00000159  00000-0  11228-3 0  8617
2 23455  99.0835  65.0596 0008527 233.6017 126.4368 14.11935158220170
1 23455U 94089A   99099.12138049  .00000159  00000-0  11190-3 0  8644
2 23455  99.0836  65.2750 0008526 232.9545 127.0847 14.11935233220209
1 23455U 94089A   99099.47570046  .00000153  00000-0  10855-3 0  8752
2 23455  99.0839  65.6342 0008527 231.8516 128.1880 14.11935300220259
1 23455U 94089A   99099.83002032  .00000159  00000-0  11180-3 0  8845
2 23455  99.0839  65.9929 0008556 230.8668 129.1743 14.11935509220308
1 23455U 94089A   99099.97174827  .00000159  00000-0  11201-3 0  8622
2 23455  99.0838  66.1363 0008552 230.4594 129.5820 14.11935573220325
1 23455U 94089A   99100.18434022  .00000162  00000-0  11363-3 0  8661
2 23455  99.0841  66.3519 0008552 229.6957 130.3472 14.11935683220355
1 23455U 94089A   99100.53865994  .00000162  00000-0  11359-3 0  8818
2 23455  99.0843  66.7112 0008556 228.3308 131.7131 14.11935820220406
1 23455U 94089A   99100.82211556  .00000172  00000-0  11934-3 0  8897
2 23455  99.0843  66.9983 0008580 227.7631 132.2817 14.11936053220443
1 23455U 94089A   99100.96384331  .00000177  00000-0  12217-3 0  8636
2 23455  99.0843  67.1419 0008580 227.5120 132.5330 14.11936172220468
1 23455U 94089A   99101.10557107  .00000181  00000-0  12426-3 0  8688
2 23455  99.0844  67.2856 0008588 226.9862 133.0592 14.11936272220488
1 23455U 94089A   99101.45989033  .00000167  00000-0  11627-3 0  8803
2 23455  99.0843  67.6454 0008515 225.4705 134.5769 14.11936490220535
1 23455U 94089A   99102.09766513  .00000186  00000-0  12668-3 0  8649
2 23455  99.0842  68.2915 0008545 223.8226 136.2271 14.11937032220626
1 23455U 94089A   99102.16852898  .00000193  00000-0  13053-3 0  8657
2 23455  99.0845  68.3635 0008535 223.5549 136.4959 14.11937153220633
1 23455U 94089A   99102.45198420  .00000199  00000-0  13414-3 0  8784
2 23455  99.0846  68.6508 0008541 222.4511 137.6001 14.11937373220679
1 23455U 94089A   99102.80630346  .00000208  00000-0  13873-3 0  8859
2 23455  99.0846  69.0096 0008554 221.5725 138.4800 14.11937656220723
1 23455U 94089A   99102.87716725  .00000212  00000-0  14124-3 0  8655
2 23455  99.0846  69.0815 0008547 221.5098 138.5431 14.11937752220736
1 23455U 94089A   99103.08975847  .00000222  00000-0  14640-3 0  8701
2 23455  99.0846  69.2970 0008568 220.8589 139.1944 14.11937981220763
1 23455U 94089A   99103.44407714  .00000242  00000-0  15768-3 0  8821
2 23455  99.0850  69.6563 0008564 219.4326 140.6227 14.11938424220819
1 23455U 94089A   99103.79839559  .00000262  00000-0  16839-3 0  8883
2 23455  99.0851  70.0151 0008597 218.7432 141.3124 14.11938870220869
1 23455U 94089A   99103.94012317  .00000262  00000-0  16836-3 0  8668
2 23455  99.0851  70.1586 0008605 218.3033 141.7526 14.11938956220882
1 23455U 94089A   99104.15271459  .00000267  00000-0  17103-3 0  8715
2 23455  99.0852  70.3741 0008600 217.7086 142.3487 14.11939142220919
1 23455U 94089A   99104.50703340  .00000271  00000-0  17306-3 0  8847
2 23455  99.0854  70.7331 0008609 216.3938 143.6646 14.11939405220968
1 23455U 94089A   99104.86135243  .00000276  00000-0  17598-3 0  8902
2 23455  99.0854  71.0920 0008599 215.5469 144.5138 14.11939688221010
1 23455U 94089A   99104.93221607  .00000277  00000-0  17649-3 0  8672
2 23455  99.0854  71.1637 0008605 215.3413 144.7190 14.11939745221026
1 23455U 94089A   99105.14480732  .00000279  00000-0  17742-3 0  8735
2 23455  99.0856  71.3793 0008601 214.7367 145.3244 14.11939897221058
1 23455U 94089A   99105.49912619  .00000277  00000-0  17655-3 0  8873
2 23455  99.0856  71.7382 0008619 213.4993 146.5634 14.11940107221104
1 23455U 94089A   99105.78258822  .00000400  00000-0  21866-3 0  8691
2 23455  99.0872  72.0259 0009441 214.1992 145.9018 14.11940685221144
1 23455U 94089A   99105.85344480  .00000278  00000-0  17717-3 0  8946
2 23455  99.0859  72.0977 0008764 210.9838 149.0821 14.11940328221158
1 23455U 94089A   99106.06603598  .00000276  00000-0  17588-3 0  8706
2 23455  99.0860  72.3130 0008761 210.3495 149.7165 14.11940439221188
1 23455U 94089A   99106.13689982  .00000276  00000-0  17583-3 0  8722
2 23455  99.0860  72.3849 0008762 210.1212 149.9456 14.11940481221194
1 23455U 94089A   99106.49121862  .00000270  00000-0  17282-3 0  8853
2 23455  99.0861  72.7439 0008782 208.9399 151.1285 14.11940648221243
1 23455U 94089A   99106.84553754  .00000263  00000-0  16912-3 0  8717
2 23455  99.0861  73.1027 0008798 207.7560 152.3144 14.11940795221290
1 23455U 94089A   99106.84553754  .00000263  00000-0  16912-3 0  8942
2 23455  99.0861  73.1027 0008798 207.7560 152.3144 14.11940795221290
1 23455U 94089A   99107.19985640  .00000259  00000-0  16661-3 0  8793
2 23455  99.0861  73.4617 0008779 206.7456 153.3265 14.11940959221343
1 23455U 94089A   99107.62503908  .00000235  00000-0  15335-3 0  8953
2 23455  99.0860  73.8921 0008784 205.5281 154.5449 14.11941003221408
1 23455U 94089A   99107.83763026  .00000243  00000-0  15809-3 0  9041
2 23455  99.0860  74.1074 0008789 205.0063 155.0684 14.11941192221438
1 23455U 94089A   99107.90849399  .00000242  00000-0  15718-3 0  8729
2 23455  99.0860  74.1793 0008778 204.7989 155.2760 14.11941218221444
1 23455U 94089A   99108.12108533  .00000233  00000-0  15227-3 0  8794
2 23455  99.0861  74.3949 0008774 204.0600 156.0163 14.11941262221477
1 23455U 94089A   99108.54626769  .00000227  00000-0  14927-3 0  8953
2 23455  99.0864  74.8260 0008800 202.5124 157.5669 14.11941438221534
1 23455U 94089A   99108.82972239  .00000236  00000-0  15391-3 0  9036
2 23455  99.0864  75.1130 0008811 201.8066 158.2740 14.11941662221574
1 23455U 94089A   99108.90058590  .00000235  00000-0  15368-3 0  8740
2 23455  99.0864  75.1847 0008817 201.5812 158.4987 14.11941700221580
1 23455U 94089A   99109.11317698  .00000237  00000-0  15462-3 0  8816
2 23455  99.0864  75.4002 0008808 201.0231 159.0580 14.11941831221611
1 23455U 94089A   99109.53835905  .00000234  00000-0  15286-3 0  8954
2 23455  99.0865  75.8310 0008832 199.5419 160.5413 14.11942036221670
1 23455U 94089A   99109.89267712  .00000258  00000-0  16601-3 0  8754
2 23455  99.0864  76.1898 0008835 198.8093 161.2757 14.11942439221729
1 23455U 94089A   99109.89267712  .00000258  00000-0  16601-3 0  9070
2 23455  99.0864  76.1898 0008835 198.8093 161.2757 14.11942439221729
